{"type": "FeatureCollection", "features": [ {"type": "Feature", "properties": {"norad_id": 33841, "name": "COSMOS 2251 DEB", "group": "cosmos-2251-debris", "lat": -22.64509672166789, "lon": 110.48568426141004, "alt_km": 784.4218721576217, "timestamp": "2025-12-09T16:56:36.967029+00:00", "meta": {"OBJECT_NAME": "COSMOS 2251 DEB", "OBJECT_ID": "1993-036CJ", "EPOCH": "2025-12-09T04:52:22.126368", "MEAN_MOTION": 14.3785167, "ECCENTRICITY": 0.00203837, "INCLINATION": 74.0377, "RA_OF_ASC_NODE": 284.5535, "ARG_OF_PERICENTER": 5.7324, "MEAN_ANOMALY": 115.4887, "EPHEMERIS_TYPE": 0, "CLASSIFICATION_TYPE": "U", "NORAD_CAT_ID": 33841, "ELEMENT_SET_NO": 999, "REV_AT_EPOCH": 88063, "BSTAR": 0.00038666472, "MEAN_MOTION_DOT": 1.143e-05, "MEAN_MOTION_DDOT": 0}, "tle": {"line1": "1 33841U 93036CJ  25343.20303387  .00001143  00000+0  38666-3 0  9993", "line2": "2 33841  74.0377 284.5535 0020383   5.7324 115.4887 14.37851670880639"}}, "geometry": {"type": "Point", "coordinates": [110.48568426141004, -22.64509672166789]}}, {"type": "Feature", "properties": {"norad_id": 33842, "name": "COSMOS 2251 DEB", "group": "cosmos-2251-debris", "lat": 43.73242329850081, "lon": -118.82017344212792, "alt_km": 735.537295606021, "timestamp": "2025-12-09T16:56:36.967040+00:00", "meta": {"OBJECT_NAME": "COSMOS 2251 DEB", "OBJECT_ID": "1993-036CK", "EPOCH": "2025-12-09T10:04:32.124864", "MEAN_MOTION": 14.42688035, "ECCENTRICITY": 0.0047197, "INCLINATION": 74.0332, "RA_OF_ASC_NODE": 225.8138, "ARG_OF_PERICENTER": 333.7995, "MEAN_ANOMALY": 26.0773, "EPHEMERIS_TYPE": 0, "CLASSIFICATION_TYPE": "U", "NORAD_CAT_ID": 33842, "ELEMENT_SET_NO": 999, "REV_AT_EPOCH": 88289, "BSTAR": 0.00054489, "MEAN_MOTION_DOT": 1.811e-05, "MEAN_MOTION_DDOT": 0}, "tle": {"line1": "1 33842U 93036CK  25343.41981626  .00001811  00000+0  54489-3 0  9998", "line2": "2 33842  74.0332 225.8138 0047197 333.7995  26.0773 14.42688035882898"}}, "geometry": {"type": "Point", "coordinates": [-118.82017344212792, 43.73242329850081]}}, {"type": "Feature", "properties": {"norad_id": 33844, "name": "COSMOS 2251 DEB", "group": "cosmos-2251-debris", "lat": 67.57562762745329, "lon": 102.12411357104176, "alt_km": 738.9963797940936, "timestamp": "2025-12-09T16:56:36.967051+00:00", "meta": {"OBJECT_NAME": "COSMOS 2251 DEB", "OBJECT_ID": "1993-036CM", "EPOCH": "2025-12-09T08:35:36.414240", "MEAN_MOTION": 14.33705815, "ECCENTRICITY": 0.0047082, "INCLINATION": 74.0672, "RA_OF_ASC_NODE": 58.9522, "ARG_OF_PERICENTER": 81.9883, "MEAN_ANOMALY": 357.1004, "EPHEMERIS_TYPE": 0, "CLASSIFICATION_TYPE": "U", "NORAD_CAT_ID": 33844, "ELEMENT_SET_NO": 999, "REV_AT_EPOCH": 87677, "BSTAR": 0.00066547, "MEAN_MOTION_DOT": 1.845e-05, "MEAN_MOTION_DDOT": 0}, "tle": {"line1": "1 33844U 93036CM  25343.35806035  .00001845  00000+0  66547-3 0  9998", "line2": "2 33844  74.0672  58.9522 0047082  81.9883 357.1004 14.33705815876771"}}, "geometry": {"type": "Point", "coordinates": [102.12411357104176, 67.57562762745329]}}, {"type": "Feature", "properties": {"norad_id": 33848, "name": "COSMOS 2251 DEB", "group": "cosmos-2251-debris", "lat": 37.084738808749435, "lon": 170.78821540071888, "alt_km": 737.4535219857798, "timestamp": "2025-12-09T16:56:36.967061+00:00", "meta": {"OBJECT_NAME": "COSMOS 2251 DEB", "OBJECT_ID": "1993-036CR", "EPOCH": "2025-12-09T11:59:54.432384", "MEAN_MOTION": 14.44027926, "ECCENTRICITY": 0.0041003, "INCLINATION": 74.0321, "RA_OF_ASC_NODE": 3.6706, "ARG_OF_PERICENTER": 60.6259, "MEAN_ANOMALY": 89.2733, "EPHEMERIS_TYPE": 0, "CLASSIFICATION_TYPE": "U", "NORAD_CAT_ID": 33848, "ELEMENT_SET_NO": 999, "REV_AT_EPOCH": 87784, "BSTAR": 0.0015438, "MEAN_MOTION_DOT": 5.312e-05, "MEAN_MOTION_DDOT": 0}, "tle": {"line1": "1 33848U 93036CR  25343.49993556  .00005312  00000+0  15438-2 0  9997", "line2": "2 33848  74.0321   3.6706 0041003  60.6259  89.2733 14.44027926877848"}}, "geometry": {"type": "Point", "coordinates": [170.78821540071888, 37.084738808749435]}}, {"type": "Feature", "properties": {"norad_id": 33892, "name": "COSMOS 2251 DEB", "group": "cosmos-2251-debris", "lat": -63.37554970534081, "lon": 72.15513431510492, "alt_km": 892.6555445390104, "timestamp": "2025-12-09T16:56:36.967071+00:00", "meta": {"OBJECT_NAME": "COSMOS 2251 DEB", "OBJECT_ID": "1993-036CV", "EPOCH": "2025-12-09T10:49:32.694240", "MEAN_MOTION": 14.23318421, "ECCENTRICITY": 0.0113115, "INCLINATION": 73.803, "RA_OF_ASC_NODE": 108.057, "ARG_OF_PERICENTER": 139.9101, "MEAN_ANOMALY": 285.3001, "EPHEMERIS_TYPE": 0, "CLASSIFICATION_TYPE": "U", "NORAD_CAT_ID": 33892, "ELEMENT_SET_NO": 999, "REV_AT_EPOCH": 86908, "BSTAR": 0.0014999, "MEAN_MOTION_DOT": 3.606e-05, "MEAN_MOTION_DDOT": 0}, "tle": {"line1": "1 33892U 93036CV  25343.45107285  .00003606  00000+0  14999-2 0  9993", "line2": "2 33892  73.8030 108.0570 0113115 139.9101 285.3001 14.23318421869084"}}, "geometry": {"type": "Point", "coordinates": [72.15513431510492, -63.37554970534081]}}, {"type": "Feature", "properties": {"norad_id": 33894, "name": "COSMOS 2251 DEB", "group": "cosmos-2251-debris", "lat": -48.42988526235877, "lon": -167.0486197916413, "alt_km": 851.8592379779293, "timestamp": "2025-12-09T16:56:36.967082+00:00", "meta": {"OBJECT_NAME": "COSMOS 2251 DEB", "OBJECT_ID": "1993-036CX", "EPOCH": "2025-12-08T10:38:58.588224", "MEAN_MOTION": 13.21283258, "ECCENTRICITY": 0.05795731, "INCLINATION": 73.7668, "RA_OF_ASC_NODE": 355.7273, "ARG_OF_PERICENTER": 275.6874, "MEAN_ANOMALY": 77.844, "EPHEMERIS_TYPE": 0, "CLASSIFICATION_TYPE": "U", "NORAD_CAT_ID": 33894, "ELEMENT_SET_NO": 999, "REV_AT_EPOCH": 80651, "BSTAR": 0.0026326972, "MEAN_MOTION_DOT": 2.6e-05, "MEAN_MOTION_DDOT": 0}, "tle": {"line1": "1 33894U 93036CX  25342.44373366  .00002600  00000+0  26327-2 0  9999", "line2": "2 33894  73.7668 355.7273 0579573 275.6874  77.8440 13.21283258806518"}}, "geometry": {"type": "Point", "coordinates": [-167.0486197916413, -48.42988526235877]}}, {"type": "Feature", "properties": {"norad_id": 33896, "name": "COSMOS 2251 DEB", "group": "cosmos-2251-debris", "lat": 45.608621324391784, "lon": 179.50482554605333, "alt_km": 791.8649355106381, "timestamp": "2025-12-09T16:56:36.967092+00:00", "meta": {"OBJECT_NAME": "COSMOS 2251 DEB", "OBJECT_ID": "1993-036CZ", "EPOCH": "2025-12-09T11:47:00.075840", "MEAN_MOTION": 14.19025627, "ECCENTRICITY": 0.0126297, "INCLINATION": 73.7661, "RA_OF_ASC_NODE": 162.5809, "ARG_OF_PERICENTER": 338.8033, "MEAN_ANOMALY": 50.0591, "EPHEMERIS_TYPE": 0, "CLASSIFICATION_TYPE": "U", "NORAD_CAT_ID": 33896, "ELEMENT_SET_NO": 999, "REV_AT_EPOCH": 86694, "BSTAR": 0.00090913, "MEAN_MOTION_DOT": 2.028e-05, "MEAN_MOTION_DDOT": 0}, "tle": {"line1": "1 33896U 93036CZ  25343.49097310  .00002028  00000+0  90913-3 0  9996", "line2": "2 33896  73.7661 162.5809 0126297 338.8033  50.0591 14.19025627866947"}}, "geometry": {"type": "Point", "coordinates": [179.50482554605333, 45.608621324391784]}}, {"type": "Feature", "properties": {"norad_id": 33899, "name": "COSMOS 2251 DEB", "group": "cosmos-2251-debris", "lat": -31.74009718149661, "lon": 81.33323809004102, "alt_km": 735.1512581043417, "timestamp": "2025-12-09T16:56:36.967103+00:00", "meta": {"OBJECT_NAME": "COSMOS 2251 DEB", "OBJECT_ID": "1993-036DC", "EPOCH": "2025-12-09T09:09:59.215968", "MEAN_MOTION": 14.61134345, "ECCENTRICITY": 0.0057087, "INCLINATION": 74.0541, "RA_OF_ASC_NODE": 92.1387, "ARG_OF_PERICENTER": 155.813, "MEAN_ANOMALY": 267.2045, "EPHEMERIS_TYPE": 0, "CLASSIFICATION_TYPE": "U", "NORAD_CAT_ID": 33899, "ELEMENT_SET_NO": 999, "REV_AT_EPOCH": 88790, "BSTAR": 0.0016143, "MEAN_MOTION_DOT": 8.106e-05, "MEAN_MOTION_DDOT": 0}, "tle": {"line1": "1 33899U 93036DC  25343.38193537  .00008106  00000+0  16143-2 0  9990", "line2": "2 33899  74.0541  92.1387 0057087 155.8130 267.2045 14.61134345887905"}}, "geometry": {"type": "Point", "coordinates": [81.33323809004102, -31.74009718149661]}}, {"type": "Feature", "properties": {"norad_id": 33900, "name": "COSMOS 2251 DEB", "group": "cosmos-2251-debris", "lat": 31.14451365304172, "lon": 15.615838495827465, "alt_km": 715.9532898452699, "timestamp": "2025-12-09T16:56:36.967113+00:00", "meta": {"OBJECT_NAME": "COSMOS 2251 DEB", "OBJECT_ID": "1993-036DD", "EPOCH": "2025-12-09T12:36:26.377920", "MEAN_MOTION": 14.58330002, "ECCENTRICITY": 0.0047024, "INCLINATION": 74.0193, "RA_OF_ASC_NODE": 5.9875, "ARG_OF_PERICENTER": 159.0041, "MEAN_ANOMALY": 5.905, "EPHEMERIS_TYPE": 0, "CLASSIFICATION_TYPE": "U", "NORAD_CAT_ID": 33900, "ELEMENT_SET_NO": 999, "REV_AT_EPOCH": 88989, "BSTAR": 0.00064787, "MEAN_MOTION_DOT": 3.015e-05, "MEAN_MOTION_DDOT": 0}, "tle": {"line1": "1 33900U 93036DD  25343.52530530  .00003015  00000+0  64787-3 0  9999", "line2": "2 33900  74.0193   5.9875 0047024 159.0041   5.9050 14.58330002889899"}}, "geometry": {"type": "Point", "coordinates": [15.615838495827465, 31.14451365304172]}}, {"type": "Feature", "properties": {"norad_id": 33901, "name": "COSMOS 2251 DEB", "group": "cosmos-2251-debris", "lat": 66.26310608568278, "lon": -165.76146344656038, "alt_km": 509.18405369851735, "timestamp": "2025-12-09T16:56:36.967123+00:00", "meta": {"OBJECT_NAME": "COSMOS 2251 DEB", "OBJECT_ID": "1993-036DE", "EPOCH": "2025-12-09T06:57:43.650720", "MEAN_MOTION": 15.15299887, "ECCENTRICITY": 0.0032884, "INCLINATION": 73.7728, "RA_OF_ASC_NODE": 56.5941, "ARG_OF_PERICENTER": 188.8731, "MEAN_ANOMALY": 171.1886, "EPHEMERIS_TYPE": 0, "CLASSIFICATION_TYPE": "U", "NORAD_CAT_ID": 33901, "ELEMENT_SET_NO": 999, "REV_AT_EPOCH": 89461, "BSTAR": 0.0043514, "MEAN_MOTION_DOT": 0.00083992, "MEAN_MOTION_DDOT": 0}, "tle": {"line1": "1 33901U 93036DE  25343.29008855  .00083992  00000+0  43514-2 0  9990", "line2": "2 33901  73.7728  56.5941 0032884 188.8731 171.1886 15.15299887894618"}}, "geometry": {"type": "Point", "coordinates": [-165.76146344656038, 66.26310608568278]}}]}